{"type": "FeatureCollection", "features": [ {"type": "Feature", "properties": {"norad_id": 36402, "name": "COSMOS 2460 (732)", "group": "gnss", "lat": -5.242486389700432, "lon": 142.88408024702207, "alt_km": 19131.278688424118, "timestamp": "2025-12-20T14:38:02.212634+00:00", "meta": {"OBJECT_NAME": "COSMOS 2460 (732)", "OBJECT_ID": "2010-007C", "EPOCH": "2025-12-19T13:42:43.098624", "MEAN_MOTION": 2.131063, "ECCENTRICITY": 0.0002543, "INCLINATION": 65.526, "RA_OF_ASC_NODE": 320.5423, "ARG_OF_PERICENTER": 279.9868, "MEAN_ANOMALY": 189.087, "EPHEMERIS_TYPE": 0, "CLASSIFICATION_TYPE": "U", "NORAD_CAT_ID": 36402, "ELEMENT_SET_NO": 999, "REV_AT_EPOCH": 12290, "BSTAR": 0, "MEAN_MOTION_DOT": -5.7e-07, "MEAN_MOTION_DDOT": 0}, "tle": {"line1": "1 36402U 10007C   25353.57133216 -.00000057  00000+0  00000+0 0  9990", "line2": "2 36402  65.5260 320.5423 0002543 279.9868 189.0870  2.13106300122906"}}, "geometry": {"type": "Point", "coordinates": [142.88408024702207, -5.242486389700432]}}, {"type": "Feature", "properties": {"norad_id": 36585, "name": "GPS BIIF-1  (PRN 25)", "group": "gnss", "lat": 50.90931788994804, "lon": -26.478054776572865, "alt_km": 19925.139955598817, "timestamp": "2025-12-20T14:38:02.212646+00:00", "meta": {"OBJECT_NAME": "GPS BIIF-1  (PRN 25)", "OBJECT_ID": "2010-022A", "EPOCH": "2025-12-20T02:58:58.243008", "MEAN_MOTION": 2.00553637, "ECCENTRICITY": 0.01264155, "INCLINATION": 54.299, "RA_OF_ASC_NODE": 215.7761, "ARG_OF_PERICENTER": 65.1663, "MEAN_ANOMALY": 50.4936, "EPHEMERIS_TYPE": 0, "CLASSIFICATION_TYPE": "U", "NORAD_CAT_ID": 36585, "ELEMENT_SET_NO": 999, "REV_AT_EPOCH": 11400, "BSTAR": 0, "MEAN_MOTION_DOT": 8e-07, "MEAN_MOTION_DDOT": 0}, "tle": {"line1": "1 36585U 10022A   25354.12428522  .00000080  00000+0  00000+0 0  9993", "line2": "2 36585  54.2990 215.7761 0126415  65.1663  50.4936  2.00553637114007"}}, "geometry": {"type": "Point", "coordinates": [-26.478054776572865, 50.90931788994804]}}, {"type": "Feature", "properties": {"norad_id": 36828, "name": "BEIDOU-2 IGSO-1 (C06)", "group": "gnss", "lat": -50.7730852610763, "lon": 46.52238854324895, "alt_km": 35618.06788536658, "timestamp": "2025-12-20T14:38:02.212658+00:00", "meta": {"OBJECT_NAME": "BEIDOU-2 IGSO-1 (C06)", "OBJECT_ID": "2010-036A", "EPOCH": "2025-12-14T21:38:21.623424", "MEAN_MOTION": 1.00275796, "ECCENTRICITY": 0.00512569, "INCLINATION": 54.2866, "RA_OF_ASC_NODE": 164.6279, "ARG_OF_PERICENTER": 215.8888, "MEAN_ANOMALY": 135.7931, "EPHEMERIS_TYPE": 0, "CLASSIFICATION_TYPE": "U", "NORAD_CAT_ID": 36828, "ELEMENT_SET_NO": 999, "REV_AT_EPOCH": 5624, "BSTAR": 0, "MEAN_MOTION_DOT": -2.4e-07, "MEAN_MOTION_DDOT": 0}, "tle": {"line1": "1 36828U 10036A   25348.90163916 -.00000024  00000+0  00000+0 0  9999", "line2": "2 36828  54.2866 164.6279 0051256 215.8888 135.7931  1.00275796 56247"}}, "geometry": {"type": "Point", "coordinates": [46.52238854324895, -50.7730852610763]}}, {"type": "Feature", "properties": {"norad_id": 37210, "name": "BEIDOU-2 G4 (C04)", "group": "gnss", "lat": 2.043568432679698, "lon": 108.93077211039834, "alt_km": 35825.392023515094, "timestamp": "2025-12-20T14:38:02.212672+00:00", "meta": {"OBJECT_NAME": "BEIDOU-2 G4 (C04)", "OBJECT_ID": "2010-057A", "EPOCH": "2025-12-20T05:26:00.915072", "MEAN_MOTION": 1.00272062, "ECCENTRICITY": 0.00104307, "INCLINATION": 3.2023, "RA_OF_ASC_NODE": 69.9114, "ARG_OF_PERICENTER": 192.7482, "MEAN_ANOMALY": 67.9911, "EPHEMERIS_TYPE": 0, "CLASSIFICATION_TYPE": "U", "NORAD_CAT_ID": 37210, "ELEMENT_SET_NO": 999, "REV_AT_EPOCH": 5549, "BSTAR": 0, "MEAN_MOTION_DOT": -9e-07, "MEAN_MOTION_DDOT": 0}, "tle": {"line1": "1 37210U 10057A   25354.22639948 -.00000090  00000+0  00000+0 0  9996", "line2": "2 37210   3.2023  69.9114 0010430 192.7482  67.9911  1.00272062 55492"}}, "geometry": {"type": "Point", "coordinates": [108.93077211039834, 2.043568432679698]}}, {"type": "Feature", "properties": {"norad_id": 37256, "name": "BEIDOU-2 IGSO-2 (C07)", "group": "gnss", "lat": 27.016594092158932, "lon": 66.62423280532323, "alt_km": 35722.3485461653, "timestamp": "2025-12-20T14:38:02.212684+00:00", "meta": {"OBJECT_NAME": "BEIDOU-2 IGSO-2 (C07)", "OBJECT_ID": "2010-068A", "EPOCH": "2025-12-19T17:11:58.178112", "MEAN_MOTION": 1.00284373, "ECCENTRICITY": 0.00484108, "INCLINATION": 47.8732, "RA_OF_ASC_NODE": 274.0632, "ARG_OF_PERICENTER": 216.3467, "MEAN_ANOMALY": 324.0365, "EPHEMERIS_TYPE": 0, "CLASSIFICATION_TYPE": "U", "NORAD_CAT_ID": 37256, "ELEMENT_SET_NO": 999, "REV_AT_EPOCH": 5499, "BSTAR": 0, "MEAN_MOTION_DOT": -1.93e-06, "MEAN_MOTION_DDOT": 0}, "tle": {"line1": "1 37256U 10068A   25353.71664558 -.00000193  00000+0  00000+0 0  9990", "line2": "2 37256  47.8732 274.0632 0048410 216.3467 324.0365  1.00284373 54994"}}, "geometry": {"type": "Point", "coordinates": [66.62423280532323, 27.016594092158932]}}, {"type": "Feature", "properties": {"norad_id": 37384, "name": "BEIDOU-2 IGSO-3 (C08)", "group": "gnss", "lat": 12.637116821456372, "lon": 48.6826380463713, "alt_km": 35934.10312268885, "timestamp": "2025-12-20T14:38:02.212696+00:00", "meta": {"OBJECT_NAME": "BEIDOU-2 IGSO-3 (C08)", "OBJECT_ID": "2011-013A", "EPOCH": "2025-12-19T15:24:21.799872", "MEAN_MOTION": 1.00269211, "ECCENTRICITY": 0.0035344, "INCLINATION": 62.1523, "RA_OF_ASC_NODE": 41.8505, "ARG_OF_PERICENTER": 187.8464, "MEAN_ANOMALY": 197.2749, "EPHEMERIS_TYPE": 0, "CLASSIFICATION_TYPE": "U", "NORAD_CAT_ID": 37384, "ELEMENT_SET_NO": 999, "REV_AT_EPOCH": 5386, "BSTAR": 0, "MEAN_MOTION_DOT": -1.68e-06, "MEAN_MOTION_DDOT": 0}, "tle": {"line1": "1 37384U 11013A   25353.64191898 -.00000168  00000+0  00000+0 0  9999", "line2": "2 37384  62.1523  41.8505 0035344 187.8464 197.2749  1.00269211 53869"}}, "geometry": {"type": "Point", "coordinates": [48.6826380463713, 12.637116821456372]}}, {"type": "Feature", "properties": {"norad_id": 37605, "name": "GSAT-8 (GAGAN/PRN 127)", "group": "gnss", "lat": -1.6413956040634774, "lon": 4.127654671032124, "alt_km": 35789.524010263354, "timestamp": "2025-12-20T14:38:02.212708+00:00", "meta": {"OBJECT_NAME": "GSAT-8 (GAGAN/PRN 127)", "OBJECT_ID": "2011-022A", "EPOCH": "2025-12-20T03:13:13.633248", "MEAN_MOTION": 1.00270781, "ECCENTRICITY": 0.00088461, "INCLINATION": 1.6677, "RA_OF_ASC_NODE": 84.1202, "ARG_OF_PERICENTER": 185.3843, "MEAN_ANOMALY": 282.8543, "EPHEMERIS_TYPE": 0, "CLASSIFICATION_TYPE": "U", "NORAD_CAT_ID": 37605, "ELEMENT_SET_NO": 999, "REV_AT_EPOCH": 5142, "BSTAR": 0, "MEAN_MOTION_DOT": 1.07e-06, "MEAN_MOTION_DDOT": 0}, "tle": {"line1": "1 37605U 11022A   25354.13418557  .00000107  00000+0  00000+0 0  9996", "line2": "2 37605   1.6677  84.1202 0008846 185.3843 282.8543  1.00270781 51425"}}, "geometry": {"type": "Point", "coordinates": [4.127654671032124, -1.6413956040634774]}}, {"type": "Feature", "properties": {"norad_id": 37763, "name": "BEIDOU-2 IGSO-4 (C09)", "group": "gnss", "lat": -42.78265806142609, "lon": 28.535829988508144, "alt_km": 35163.24484829691, "timestamp": "2025-12-20T14:38:02.212720+00:00", "meta": {"OBJECT_NAME": "BEIDOU-2 IGSO-4 (C09)", "OBJECT_ID": "2011-038A", "EPOCH": "2025-12-17T23:29:21.564384", "MEAN_MOTION": 1.00281312, "ECCENTRICITY": 0.01493143, "INCLINATION": 54.5836, "RA_OF_ASC_NODE": 167.2999, "ARG_OF_PERICENTER": 230.2426, "MEAN_ANOMALY": 136.1954, "EPHEMERIS_TYPE": 0, "CLASSIFICATION_TYPE": "U", "NORAD_CAT_ID": 37763, "ELEMENT_SET_NO": 999, "REV_AT_EPOCH": 5283, "BSTAR": 0, "MEAN_MOTION_DOT": 6.5e-07, "MEAN_MOTION_DDOT": 0}, "tle": {"line1": "1 37763U 11038A   25351.97872181  .00000065  00000+0  00000+0 0  9997", "line2": "2 37763  54.5836 167.2999 0149314 230.2426 136.1954  1.00281312 52838"}}, "geometry": {"type": "Point", "coordinates": [28.535829988508144, -42.78265806142609]}}, {"type": "Feature", "properties": {"norad_id": 37846, "name": "GSAT0101 (GALILEO-PFM)", "group": "gnss", "lat": 40.77713182169841, "lon": 20.615388328000144, "alt_km": 23217.435147274937, "timestamp": "2025-12-20T14:38:02.212733+00:00", "meta": {"OBJECT_NAME": "GSAT0101 (GALILEO-PFM)", "OBJECT_ID": "2011-060A", "EPOCH": "2025-12-18T18:24:05.988672", "MEAN_MOTION": 1.70475824, "ECCENTRICITY": 0.000318, "INCLINATION": 57.0514, "RA_OF_ASC_NODE": 346.6564, "ARG_OF_PERICENTER": 319.1021, "MEAN_ANOMALY": 40.8874, "EPHEMERIS_TYPE": 0, "CLASSIFICATION_TYPE": "U", "NORAD_CAT_ID": 37846, "ELEMENT_SET_NO": 999, "REV_AT_EPOCH": 8804, "BSTAR": 0, "MEAN_MOTION_DOT": -7.5e-07, "MEAN_MOTION_DDOT": 0}, "tle": {"line1": "1 37846U 11060A   25352.76673598 -.00000075  00000+0  00000+0 0  9995", "line2": "2 37846  57.0514 346.6564 0003180 319.1021  40.8874  1.70475824 88044"}}, "geometry": {"type": "Point", "coordinates": [20.615388328000144, 40.77713182169841]}}, {"type": "Feature", "properties": {"norad_id": 37847, "name": "GSAT0102 (GALILEO-FM2)", "group": "gnss", "lat": 56.44847387993073, "lon": 88.61815853405228, "alt_km": 23227.85000460155, "timestamp": "2025-12-20T14:38:02.212745+00:00", "meta": {"OBJECT_NAME": "GSAT0102 (GALILEO-FM2)", "OBJECT_ID": "2011-060B", "EPOCH": "2025-12-18T09:18:10.933920", "MEAN_MOTION": 1.7047603, "ECCENTRICITY": 0.0005099, "INCLINATION": 57.0522, "RA_OF_ASC_NODE": 346.6671, "ARG_OF_PERICENTER": 311.9548, "MEAN_ANOMALY": 220.8374, "EPHEMERIS_TYPE": 0, "CLASSIFICATION_TYPE": "U", "NORAD_CAT_ID": 37847, "ELEMENT_SET_NO": 999, "REV_AT_EPOCH": 8804, "BSTAR": 0, "MEAN_MOTION_DOT": -7.6e-07, "MEAN_MOTION_DDOT": 0}, "tle": {"line1": "1 37847U 11060B   25352.38762655 -.00000076  00000+0  00000+0 0  9998", "line2": "2 37847  57.0522 346.6671 0005099 311.9548 220.8374  1.70476030 88043"}}, "geometry": {"type": "Point", "coordinates": [88.61815853405228, 56.44847387993073]}}]}